start=new Date('2022-05-05T00:00:00.000Z').valueOf();
sats=[{"RA_OF_ASC_NODE":"343.6672","ELEMENT_SET_NO":"999","SEMIMAJOR_AXIS":"6925.352","OBJECT_NAME":"STARLINK-1748","BSTAR":"0.00019392000000","APOAPSIS":"548.010","TLE_LINE2":"2 46570  53.0565 343.6672 0001145  84.3565 275.7555 15.06398859 88029","CLASSIFICATION_TYPE":"U","ECCENTRICITY":"0.00011450","TLE_LINE1":"1 46570U 20070AQ  22124.74560608  .00002608  00000-0  19392-3 0  9991","EPOCH":"2022-05-04T17:53:40.365312","CENTER_NAME":"EARTH","INCLINATION":"53.0565","NORAD_CAT_ID":"46570","OBJECT_ID":"2020-070AQ","EPHEMERIS_TYPE":"0","OBJECT_TYPE":"PAYLOAD","REV_AT_EPOCH":"8802","MEAN_ELEMENT_THEORY":"SGP4","TIME_SYSTEM":"UTC","PERIAPSIS":"546.424","SITE":"AFETR","RCS_SIZE":"LARGE","MEAN_MOTION":"15.06398859","MEAN_ANOMALY":"275.7555","MEAN_MOTION_DDOT":"0.0000000000000","MEAN_MOTION_DOT":"0.00002608","LAUNCH_DATE":"2020-10-06","FILE":"3429148","GP_ID":"202716499","ARG_OF_PERICENTER":"84.3565","REF_FRAME":"TEME","PERIOD":"95.592","DECAY_DATE":null,"COUNTRY_CODE":"US"},{"EPHEMERIS_TYPE":"0","OBJECT_TYPE":"PAYLOAD","REV_AT_EPOCH":"8762","MEAN_ELEMENT_THEORY":"SGP4","TIME_SYSTEM":"UTC","TLE_LINE1":"1 46572U 20070AS  22123.94762180  .00019477  00000-0  13245-2 0  9995","EPOCH":"2022-05-03T22:44:34.523520","CENTER_NAME":"EARTH","INCLINATION":"53.0551","NORAD_CAT_ID":"46572","OBJECT_ID":"2020-070AS","SEMIMAJOR_AXIS":"6925.492","OBJECT_NAME":"STARLINK-1531","BSTAR":"0.00132450000000","APOAPSIS":"548.745","TLE_LINE2":"2 46572  53.0551   7.2545 0002004  67.6231 292.4970 15.06353115 87625","CLASSIFICATION_TYPE":"U","ECCENTRICITY":"0.00020040","RA_OF_ASC_NODE":"7.2545","ELEMENT_SET_NO":"999","COUNTRY_CODE":"US","FILE":"3428698","ARG_OF_PERICENTER":"67.6231","GP_ID":"202682352","REF_FRAME":"TEME","PERIOD":"95.595","DECAY_DATE":null,"MEAN_MOTION":"15.06353115","MEAN_MOTION_DDOT":"0.0000000000000","MEAN_MOTION_DOT":"0.00019477","MEAN_ANOMALY":"292.4970","LAUNCH_DATE":"2020-10-06","PERIAPSIS":"545.969","SITE":"AFETR","RCS_SIZE":"LARGE"},{"FILE":"3428698","REF_FRAME":"TEME","PERIOD":"95.592","ARG_OF_PERICENTER":"62.0331","GP_ID":"202682103","DECAY_DATE":null,"COUNTRY_CODE":"US","PERIAPSIS":"546.226","RCS_SIZE":"LARGE","SITE":"AFETR","MEAN_MOTION":"15.06402116","LAUNCH_DATE":"2020-10-06","MEAN_MOTION_DDOT":"0.0000000000000","MEAN_ANOMALY":"298.0801","MEAN_MOTION_DOT":"0.00001035","CENTER_NAME":"EARTH","TLE_LINE1":"1 46573U 20070AT  22124.32310464  .00001035  00000-0  88361-4 0  9997","EPOCH":"2022-05-04T07:45:16.240896","INCLINATION":"53.0572","NORAD_CAT_ID":"46573","OBJECT_ID":"2020-070AT","EPHEMERIS_TYPE":"0","OBJECT_TYPE":"PAYLOAD","TIME_SYSTEM":"UTC","REV_AT_EPOCH":"8789","MEAN_ELEMENT_THEORY":"SGP4","RA_OF_ASC_NODE":"350.5459","ELEMENT_SET_NO":"999","BSTAR":"0.00008836100000","OBJECT_NAME":"STARLINK-1650","SEMIMAJOR_AXIS":"6925.342","TLE_LINE2":"2 46573  53.0572 350.5459 0001416  62.0331 298.0801 15.06402116 87893","APOAPSIS":"548.188","CLASSIFICATION_TYPE":"U","ECCENTRICITY":"0.00014160"},{"MEAN_MOTION_DDOT":"0.0000000000000","MEAN_MOTION_DOT":"0.00002710","MEAN_ANOMALY":"271.6105","LAUNCH_DATE":"2020-10-06","MEAN_MOTION":"15.06403878","PERIAPSIS":"546.208","SITE":"AFETR","RCS_SIZE":"LARGE","COUNTRY_CODE":"US","FILE":"3429148","DECAY_DATE":null,"ARG_OF_PERICENTER":"88.5048","GP_ID":"202716253","REF_FRAME":"TEME","PERIOD":"95.592","APOAPSIS":"548.195","TLE_LINE2":"2 46574  53.0551 348.2412 0001435  88.5048 271.6105 15.06403878 87972","SEMIMAJOR_AXIS":"6925.337","OBJECT_NAME":"STARLINK-1660","BSTAR":"0.00020076000000","ECCENTRICITY":"0.00014350","CLASSIFICATION_TYPE":"U","RA_OF_ASC_NODE":"348.2412","ELEMENT_SET_NO":"999","EPHEMERIS_TYPE":"0","REV_AT_EPOCH":"8797","MEAN_ELEMENT_THEORY":"SGP4","TIME_SYSTEM":"UTC","OBJECT_TYPE":"PAYLOAD","INCLINATION":"53.0551","EPOCH":"2022-05-04T20:08:21.549984","TLE_LINE1":"1 46574U 20070AU  22124.83913831  .00002710  00000-0  20076-3 0  9990","CENTER_NAME":"EARTH","OBJECT_ID":"2020-070AU","NORAD_CAT_ID":"46574"},{"PERIAPSIS":"546.165","RCS_SIZE":"LARGE","SITE":"AFETR","LAUNCH_DATE":"2020-10-06","MEAN_MOTION_DDOT":"0.0000000000000","MEAN_ANOMALY":"295.1052","MEAN_MOTION_DOT":"0.00005517","MEAN_MOTION":"15.06419113","FILE":"3429148","DECAY_DATE":null,"REF_FRAME":"TEME","PERIOD":"95.591","GP_ID":"202716000","ARG_OF_PERICENTER":"65.0085","COUNTRY_CODE":"US","RA_OF_ASC_NODE":"323.2717","ELEMENT_SET_NO":"999","TLE_LINE2":"2 46575  53.0589 323.2717 0001429  65.0085 295.1052 15.06419113 88319","APOAPSIS":"548.145","OBJECT_NAME":"STARLINK-1675","BSTAR":"0.00038876000000","SEMIMAJOR_AXIS":"6925.290","ECCENTRICITY":"0.00014290","CLASSIFICATION_TYPE":"U","INCLINATION":"53.0589","CENTER_NAME":"EARTH","EPOCH":"2022-05-04T19:53:05.794656","TLE_LINE1":"1 46575U 20070AV  22124.82853929  .00005517  00000-0  38876-3 0  9996","OBJECT_ID":"2020-070AV","NORAD_CAT_ID":"46575","EPHEMERIS_TYPE":"0","TIME_SYSTEM":"UTC","REV_AT_EPOCH":"8831","MEAN_ELEMENT_THEORY":"SGP4","OBJECT_TYPE":"PAYLOAD"},{"OBJECT_ID":"2020-070AW","NORAD_CAT_ID":"46576","INCLINATION":"53.0553","EPOCH":"2022-05-04T19:57:44.589312","TLE_LINE1":"1 46576U 20070AW  22124.83176608  .00005250  00000-0  37101-3 0  9994","CENTER_NAME":"EARTH","REV_AT_EPOCH":"8797","MEAN_ELEMENT_THEORY":"SGP4","TIME_SYSTEM":"UTC","OBJECT_TYPE":"PAYLOAD","EPHEMERIS_TYPE":"0","ELEMENT_SET_NO":"999","RA_OF_ASC_NODE":"348.2642","ECCENTRICITY":"0.00018140","CLASSIFICATION_TYPE":"U","APOAPSIS":"548.437","TLE_LINE2":"2 46576  53.0553 348.2642 0001814  58.6926 301.4241 15.06410573 87978","SEMIMAJOR_AXIS":"6925.316","BSTAR":"0.00037101000000","OBJECT_NAME":"STARLINK-1677","DECAY_DATE":null,"GP_ID":"202715255","ARG_OF_PERICENTER":"58.6926","PERIOD":"95.591","REF_FRAME":"TEME","FILE":"3429148","COUNTRY_CODE":"US","SITE":"AFETR","RCS_SIZE":"LARGE","PERIAPSIS":"545.925","MEAN_MOTION_DDOT":"0.0000000000000","MEAN_ANOMALY":"301.4241","MEAN_MOTION_DOT":"0.00005250","LAUNCH_DATE":"2020-10-06","MEAN_MOTION":"15.06410573"},{"CLASSIFICATION_TYPE":"U","ECCENTRICITY":"0.00017470","BSTAR":"0.00035825000000","OBJECT_NAME":"STARLINK-1682","SEMIMAJOR_AXIS":"6925.333","TLE_LINE2":"2 46577  53.0542 348.4466 0001747  66.7067 293.4105 15.06405055 87961","APOAPSIS":"548.408","ELEMENT_SET_NO":"999","RA_OF_ASC_NODE":"348.4466","OBJECT_TYPE":"PAYLOAD","TIME_SYSTEM":"UTC","REV_AT_EPOCH":"8796","MEAN_ELEMENT_THEORY":"SGP4","EPHEMERIS_TYPE":"0","NORAD_CAT_ID":"46577","OBJECT_ID":"2020-070AX","CENTER_NAME":"EARTH","TLE_LINE1":"1 46577U 20070AX  22124.79490780  .00005059  00000-0  35825-3 0  9998","EPOCH":"2022-05-04T19:04:40.033920","INCLINATION":"53.0542","MEAN_MOTION":"15.06405055","LAUNCH_DATE":"2020-10-06","MEAN_MOTION_DDOT":"0.0000000000000","MEAN_ANOMALY":"293.4105","MEAN_MOTION_DOT":"0.00005059","RCS_SIZE":"LARGE","SITE":"AFETR","PERIAPSIS":"545.988","COUNTRY_CODE":"US","PERIOD":"95.592","REF_FRAME":"TEME","ARG_OF_PERICENTER":"66.7067","GP_ID":"202715505","DECAY_DATE":null,"FILE":"3429148"},{"COUNTRY_CODE":"US","FILE":"3429148","DECAY_DATE":null,"PERIOD":"95.592","REF_FRAME":"TEME","ARG_OF_PERICENTER":"68.9701","GP_ID":"202715753","LAUNCH_DATE":"2020-10-06","MEAN_ANOMALY":"291.1454","MEAN_MOTION_DDOT":"0.0000000000000","MEAN_MOTION_DOT":"0.00000458","MEAN_MOTION":"15.06400962","PERIAPSIS":"546.134","RCS_SIZE":"LARGE","SITE":"AFETR","EPHEMERIS_TYPE":"0","TIME_SYSTEM":"UTC","MEAN_ELEMENT_THEORY":"SGP4","REV_AT_EPOCH":"8816","OBJECT_TYPE":"PAYLOAD","INCLINATION":"53.0558","CENTER_NAME":"EARTH","TLE_LINE1":"1 46578U 20070AY  22124.70967356  .00000458  00000-0  49670-4 0  9990","EPOCH":"2022-05-04T17:01:55.795584","OBJECT_ID":"2020-070AY","NORAD_CAT_ID":"46578","TLE_LINE2":"2 46578  53.0558 333.8703 0001554  68.9701 291.1454 15.06400962 88163","APOAPSIS":"548.287","OBJECT_NAME":"STARLINK-1683","BSTAR":"0.00004967000000","SEMIMAJOR_AXIS":"6925.346","ECCENTRICITY":"0.00015540","CLASSIFICATION_TYPE":"U","RA_OF_ASC_NODE":"333.8703","ELEMENT_SET_NO":"999"},{"PERIAPSIS":"546.223","RCS_SIZE":"LARGE","SITE":"AFETR","MEAN_MOTION":"15.06400886","LAUNCH_DATE":"2020-10-06","MEAN_MOTION_DDOT":"0.0000000000000","MEAN_ANOMALY":"288.8549","MEAN_MOTION_DOT":"0.00002587","FILE":"3428698","REF_FRAME":"TEME","PERIOD":"95.592","ARG_OF_PERICENTER":"71.2595","GP_ID":"202681601","DECAY_DATE":null,"COUNTRY_CODE":"US","RA_OF_ASC_NODE":"350.5866","ELEMENT_SET_NO":"999","OBJECT_NAME":"STARLINK-1705","BSTAR":"0.00019248000000","SEMIMAJOR_AXIS":"6925.346","TLE_LINE2":"2 46579  53.0562 350.5866 0001427  71.2595 288.8549 15.06400886 87894","APOAPSIS":"548.199","CLASSIFICATION_TYPE":"U","ECCENTRICITY":"0.00014270","CENTER_NAME":"EARTH","TLE_LINE1":"1 46579U 20070AZ  22124.31572991  .00002587  00000-0  19248-3 0  9997","EPOCH":"2022-05-04T07:34:39.064224","INCLINATION":"53.0562","NORAD_CAT_ID":"46579","OBJECT_ID":"2020-070AZ","EPHEMERIS_TYPE":"0","OBJECT_TYPE":"PAYLOAD","TIME_SYSTEM":"UTC","REV_AT_EPOCH":"8789","MEAN_ELEMENT_THEORY":"SGP4"},{"TLE_LINE2":"2 46580  53.0569 348.5931 0001235  62.9498 297.1617 15.06401198 87963","APOAPSIS":"548.065","BSTAR":"0.00016467000000","OBJECT_NAME":"STARLINK-1708","SEMIMAJOR_AXIS":"6925.345","ECCENTRICITY":"0.00012350","CLASSIFICATION_TYPE":"U","RA_OF_ASC_NODE":"348.5931","ELEMENT_SET_NO":"999","EPHEMERIS_TYPE":"0","TIME_SYSTEM":"UTC","REV_AT_EPOCH":"8796","MEAN_ELEMENT_THEORY":"SGP4","OBJECT_TYPE":"PAYLOAD","INCLINATION":"53.0569","CENTER_NAME":"EARTH","EPOCH":"2022-05-04T18:11:34.748448","TLE_LINE1":"1 46580U 20070BA  22124.75804107  .00002172  00000-0  16467-3 0  9994","OBJECT_ID":"2020-070BA","NORAD_CAT_ID":"46580","LAUNCH_DATE":"2020-10-06","MEAN_MOTION_DDOT":"0.0000000000000","MEAN_ANOMALY":"297.1617","MEAN_MOTION_DOT":"0.00002172","MEAN_MOTION":"15.06401198","PERIAPSIS":"546.355","RCS_SIZE":"LARGE","SITE":"AFETR","COUNTRY_CODE":"US","FILE":"3429148","DECAY_DATE":null,"PERIOD":"95.592","REF_FRAME":"TEME","GP_ID":"202714755","ARG_OF_PERICENTER":"62.9498"}];
